start=new Date('2022-12-04T00:00:00.000Z').valueOf();
sats=[{"PERIOD":"95.592","REF_FRAME":"TEME","MEAN_MOTION_DOT":"0.00001046","PERIAPSIS":"546.179","OBJECT_NAME":"STARLINK-1240","MEAN_MOTION":"15.06398510","TLE_LINE1":"1 45194U 20012S   22337.77354598  .00001046  00000-0  89139-4 0  9998","SITE":"AFETR","NORAD_CAT_ID":"45194","GP_ID":"219475817","REV_AT_EPOCH":"15508","APOAPSIS":"548.258","DECAY_DATE":null,"ECCENTRICITY":"0.00015010","TLE_LINE2":"2 45194  53.0553 357.3392 0001501  62.3851 297.7290 15.06398510155083","FILE":"3680595","LAUNCH_DATE":"2020-02-17","BSTAR":"0.00008913900000","COUNTRY_CODE":"US","RCS_SIZE":"LARGE","CLASSIFICATION_TYPE":"U","ELEMENT_SET_NO":"999","MEAN_ANOMALY":"297.7290","EPHEMERIS_TYPE":"0","ARG_OF_PERICENTER":"62.3851","RA_OF_ASC_NODE":"357.3392","OBJECT_ID":"2020-012S","TIME_SYSTEM":"UTC","INCLINATION":"53.0553","SEMIMAJOR_AXIS":"6925.353","CENTER_NAME":"EARTH","EPOCH":"2022-12-03T18:33:54.372672","OBJECT_TYPE":"PAYLOAD","MEAN_MOTION_DDOT":"0.0000000000000","MEAN_ELEMENT_THEORY":"SGP4"},{"OBJECT_NAME":"STARLINK-1241","MEAN_MOTION":"15.17924629","REF_FRAME":"TEME","PERIOD":"94.866","MEAN_MOTION_DOT":"0.00023513","PERIAPSIS":"509.890","REV_AT_EPOCH":"15435","APOAPSIS":"514.342","TLE_LINE2":"2 45195  53.0507 348.8296 0003231  41.9333 318.1908 15.17924629154352","LAUNCH_DATE":"2020-02-17","FILE":"3680367","BSTAR":"0.00115640000000","ECCENTRICITY":"0.00032310","DECAY_DATE":null,"RCS_SIZE":"LARGE","CLASSIFICATION_TYPE":"U","COUNTRY_CODE":"US","TLE_LINE1":"1 45195U 20012T   22337.51684387  .00023513  00000-0  11564-2 0  9991","NORAD_CAT_ID":"45195","SITE":"AFETR","GP_ID":"219454657","EPHEMERIS_TYPE":"0","ARG_OF_PERICENTER":"41.9333","ELEMENT_SET_NO":"999","MEAN_ANOMALY":"318.1908","MEAN_MOTION_DDOT":"0.0000000000000","EPOCH":"2022-12-03T12:24:15.310368","OBJECT_TYPE":"PAYLOAD","MEAN_ELEMENT_THEORY":"SGP4","RA_OF_ASC_NODE":"348.8296","INCLINATION":"53.0507","TIME_SYSTEM":"UTC","OBJECT_ID":"2020-012T","CENTER_NAME":"EARTH","SEMIMAJOR_AXIS":"6890.251"},{"ELEMENT_SET_NO":"999","MEAN_ANOMALY":"305.2018","EPHEMERIS_TYPE":"0","ARG_OF_PERICENTER":"54.9132","INCLINATION":"53.0563","OBJECT_ID":"2020-012U","TIME_SYSTEM":"UTC","RA_OF_ASC_NODE":"357.4301","CENTER_NAME":"EARTH","SEMIMAJOR_AXIS":"6925.354","MEAN_MOTION_DDOT":"0.0000000000000","EPOCH":"2022-12-03T18:07:22.005120","OBJECT_TYPE":"PAYLOAD","MEAN_ELEMENT_THEORY":"SGP4","REF_FRAME":"TEME","PERIOD":"95.592","PERIAPSIS":"546.026","MEAN_MOTION_DOT":"-0.00001189","OBJECT_NAME":"STARLINK-1244","MEAN_MOTION":"15.06398308","NORAD_CAT_ID":"45196","SITE":"AFETR","TLE_LINE1":"1 45196U 20012U   22337.75511580 -.00001189  00000-0 -60915-4 0  9995","GP_ID":"219476819","FILE":"3680595","TLE_LINE2":"2 45196  53.0563 357.4301 0001723  54.9132 305.2018 15.06398308155237","LAUNCH_DATE":"2020-02-17","BSTAR":"-0.00006091500000","ECCENTRICITY":"0.00017230","DECAY_DATE":null,"REV_AT_EPOCH":"15523","APOAPSIS":"548.412","RCS_SIZE":"LARGE","CLASSIFICATION_TYPE":"U","COUNTRY_CODE":"US"},{"CLASSIFICATION_TYPE":"U","RCS_SIZE":"LARGE","COUNTRY_CODE":"US","TLE_LINE2":"2 45197  53.0559 358.3680 0002153  52.4687 307.6498 15.06395600155127","BSTAR":"0.00000514070000","FILE":"3680595","LAUNCH_DATE":"2020-02-17","ECCENTRICITY":"0.00021530","DECAY_DATE":null,"REV_AT_EPOCH":"15512","APOAPSIS":"548.718","GP_ID":"219477064","NORAD_CAT_ID":"45197","SITE":"AFETR","TLE_LINE1":"1 45197U 20012V   22337.54501557 -.00000205  00000-0  51407-5 0  9990","MEAN_MOTION":"15.06395600","OBJECT_NAME":"STARLINK-1269","PERIAPSIS":"545.736","MEAN_MOTION_DOT":"-0.00000205","REF_FRAME":"TEME","PERIOD":"95.592","MEAN_ELEMENT_THEORY":"SGP4","MEAN_MOTION_DDOT":"0.0000000000000","OBJECT_TYPE":"PAYLOAD","EPOCH":"2022-12-03T13:04:49.345248","CENTER_NAME":"EARTH","SEMIMAJOR_AXIS":"6925.362","INCLINATION":"53.0559","OBJECT_ID":"2020-012V","TIME_SYSTEM":"UTC","RA_OF_ASC_NODE":"358.3680","EPHEMERIS_TYPE":"0","ARG_OF_PERICENTER":"52.4687","MEAN_ANOMALY":"307.6498","ELEMENT_SET_NO":"999"},{"MEAN_MOTION":"15.06403205","OBJECT_NAME":"STARLINK-1154","MEAN_MOTION_DOT":"0.00000769","PERIAPSIS":"545.930","REF_FRAME":"TEME","PERIOD":"95.592","CLASSIFICATION_TYPE":"U","RCS_SIZE":"LARGE","COUNTRY_CODE":"US","REV_AT_EPOCH":"15540","APOAPSIS":"548.477","TLE_LINE2":"2 45198  53.0561 337.5257 0001839  60.3760 299.7412 15.06403205155409","BSTAR":"0.00007054100000","FILE":"3680595","LAUNCH_DATE":"2020-02-17","ECCENTRICITY":"0.00018390","DECAY_DATE":null,"GP_ID":"219476317","TLE_LINE1":"1 45198U 20012W   22337.73483546  .00000769  00000-0  70541-4 0  9992","NORAD_CAT_ID":"45198","SITE":"AFETR","EPHEMERIS_TYPE":"0","ARG_OF_PERICENTER":"60.3760","MEAN_ANOMALY":"299.7412","ELEMENT_SET_NO":"999","MEAN_ELEMENT_THEORY":"SGP4","MEAN_MOTION_DDOT":"0.0000000000000","OBJECT_TYPE":"PAYLOAD","EPOCH":"2022-12-03T17:38:09.783744","CENTER_NAME":"EARTH","SEMIMAJOR_AXIS":"6925.339","RA_OF_ASC_NODE":"337.5257","INCLINATION":"53.0561","TIME_SYSTEM":"UTC","OBJECT_ID":"2020-012W"},{"EPHEMERIS_TYPE":"0","ARG_OF_PERICENTER":"67.8348","MEAN_ANOMALY":"292.2806","ELEMENT_SET_NO":"999","MEAN_ELEMENT_THEORY":"SGP4","OBJECT_TYPE":"PAYLOAD","EPOCH":"2022-12-03T17:43:28.328448","MEAN_MOTION_DDOT":"0.0000000000000","CENTER_NAME":"EARTH","SEMIMAJOR_AXIS":"6925.347","RA_OF_ASC_NODE":"337.5069","OBJECT_ID":"2020-012X","TIME_SYSTEM":"UTC","INCLINATION":"53.0551","MEAN_MOTION":"15.06400353","OBJECT_NAME":"STARLINK-1197","MEAN_MOTION_DOT":"0.00000172","PERIAPSIS":"546.136","PERIOD":"95.592","REF_FRAME":"TEME","COUNTRY_CODE":"US","RCS_SIZE":"LARGE","CLASSIFICATION_TYPE":"U","REV_AT_EPOCH":"15546","APOAPSIS":"548.289","ECCENTRICITY":"0.00015540","DECAY_DATE":null,"FILE":"3680595","TLE_LINE2":"2 45199  53.0551 337.5069 0001554  67.8348 292.2806 15.06400353155460","BSTAR":"0.00003042400000","LAUNCH_DATE":"2020-02-17","GP_ID":"219476064","TLE_LINE1":"1 45199U 20012X   22337.73852232  .00000172  00000-0  30424-4 0  9999","SITE":"AFETR","NORAD_CAT_ID":"45199"},{"GP_ID":"219477318","TLE_LINE1":"1 45201U 20012Z   22337.74589543  .00001265  00000-0  10382-3 0  9990","NORAD_CAT_ID":"45201","SITE":"AFETR","CLASSIFICATION_TYPE":"U","RCS_SIZE":"LARGE","COUNTRY_CODE":"US","REV_AT_EPOCH":"15546","APOAPSIS":"548.738","FILE":"3680595","TLE_LINE2":"2 45201  53.0592 337.4656 0002157  55.5616 304.5577 15.06390118155461","BSTAR":"0.00010382000000","LAUNCH_DATE":"2020-02-17","ECCENTRICITY":"0.00021570","DECAY_DATE":null,"MEAN_MOTION_DOT":"0.00001265","PERIAPSIS":"545.750","REF_FRAME":"TEME","PERIOD":"95.593","MEAN_MOTION":"15.06390118","OBJECT_NAME":"STARLINK-1199","CENTER_NAME":"EARTH","SEMIMAJOR_AXIS":"6925.379","RA_OF_ASC_NODE":"337.4656","INCLINATION":"53.0592","TIME_SYSTEM":"UTC","OBJECT_ID":"2020-012Z","MEAN_ELEMENT_THEORY":"SGP4","MEAN_MOTION_DDOT":"0.0000000000000","EPOCH":"2022-12-03T17:54:05.365152","OBJECT_TYPE":"PAYLOAD","MEAN_ANOMALY":"304.5577","ELEMENT_SET_NO":"999","ARG_OF_PERICENTER":"55.5616","EPHEMERIS_TYPE":"0"},{"RA_OF_ASC_NODE":"328.2556","INCLINATION":"52.9641","OBJECT_ID":"2020-012AA","TIME_SYSTEM":"UTC","SEMIMAJOR_AXIS":"6867.945","CENTER_NAME":"EARTH","MEAN_MOTION_DDOT":"0.0000000000000","OBJECT_TYPE":"PAYLOAD","EPOCH":"2022-12-03T09:27:18.119808","MEAN_ELEMENT_THEORY":"SGP4","ELEMENT_SET_NO":"999","MEAN_ANOMALY":"317.3244","EPHEMERIS_TYPE":"0","ARG_OF_PERICENTER":"42.8124","TLE_LINE1":"1 45202U 20012AA  22337.39395972  .00043934  00000-0  17235-2 0  9995","NORAD_CAT_ID":"45202","SITE":"AFETR","GP_ID":"219445287","REV_AT_EPOCH":"15552","APOAPSIS":"493.098","LAUNCH_DATE":"2020-02-17","TLE_LINE2":"2 45202  52.9641 328.2556 0004787  42.8124 317.3244 15.25325489155526","FILE":"3680253","BSTAR":"0.00172350000000","DECAY_DATE":null,"ECCENTRICITY":"0.00047870","CLASSIFICATION_TYPE":"U","RCS_SIZE":"LARGE","COUNTRY_CODE":"US","REF_FRAME":"TEME","PERIOD":"94.406","MEAN_MOTION_DOT":"0.00043934","PERIAPSIS":"486.523","OBJECT_NAME":"STARLINK-1203","MEAN_MOTION":"15.25325489"},{"OBJECT_NAME":"STARLINK-1206","MEAN_MOTION":"15.06390480","PERIOD":"95.593","REF_FRAME":"TEME","MEAN_MOTION_DOT":"-0.00001435","PERIAPSIS":"546.067","REV_AT_EPOCH":"15547","APOAPSIS":"548.418","ECCENTRICITY":"0.00016970","DECAY_DATE":null,"TLE_LINE2":"2 45204  53.0553 337.6493 0001697  55.9923 304.1227 15.06390480155476","FILE":"3680595","LAUNCH_DATE":"2020-02-17","BSTAR":"-0.00007749900000","COUNTRY_CODE":"US","CLASSIFICATION_TYPE":"U","RCS_SIZE":"LARGE","TLE_LINE1":"1 45204U 20012AC  22337.70535983 -.00001435  00000-0 -77499-4 0  9992","SITE":"AFETR","NORAD_CAT_ID":"45204","GP_ID":"219475818","EPHEMERIS_TYPE":"0","ARG_OF_PERICENTER":"55.9923","ELEMENT_SET_NO":"999","MEAN_ANOMALY":"304.1227","EPOCH":"2022-12-03T16:55:43.089312","OBJECT_TYPE":"PAYLOAD","MEAN_MOTION_DDOT":"0.0000000000000","MEAN_ELEMENT_THEORY":"SGP4","RA_OF_ASC_NODE":"337.6493","OBJECT_ID":"2020-012AC","TIME_SYSTEM":"UTC","INCLINATION":"53.0553","SEMIMAJOR_AXIS":"6925.378","CENTER_NAME":"EARTH"},{"EPHEMERIS_TYPE":"0","ARG_OF_PERICENTER":"59.9332","ELEMENT_SET_NO":"999","MEAN_ANOMALY":"300.1824","MEAN_MOTION_DDOT":"0.0000000000000","EPOCH":"2022-12-03T17:27:33.714720","OBJECT_TYPE":"PAYLOAD","MEAN_ELEMENT_THEORY":"SGP4","RA_OF_ASC_NODE":"337.5376","INCLINATION":"53.0571","TIME_SYSTEM":"UTC","OBJECT_ID":"2020-012AD","SEMIMAJOR_AXIS":"6925.371","CENTER_NAME":"EARTH","OBJECT_NAME":"STARLINK-1208","MEAN_MOTION":"15.06392582","REF_FRAME":"TEME","PERIOD":"95.593","MEAN_MOTION_DOT":"-0.00001539","PERIAPSIS":"546.069","APOAPSIS":"548.404","REV_AT_EPOCH":"15548","TLE_LINE2":"2 45205  53.0571 337.5376 0001686  59.9332 300.1824 15.06392582155487","BSTAR":"-0.00008442000000","FILE":"3680595","LAUNCH_DATE":"2020-02-17","ECCENTRICITY":"0.00016860","DECAY_DATE":null,"CLASSIFICATION_TYPE":"U","RCS_SIZE":"LARGE","COUNTRY_CODE":"US","TLE_LINE1":"1 45205U 20012AD  22337.72747355 -.00001539  00000-0 -84420-4 0  9990","NORAD_CAT_ID":"45205","SITE":"AFETR","GP_ID":"219476564"}];
